{
  "links" : {
    "next" : "https://api.nasa.gov/neo/rest/v1/feed?start_date=2014-11-09&end_date=2014-11-09&detailed=true&api_key=t0TVs3DtDT2H8Oy2Zy8m2eVrNsAVKAexjcZXUckd",
    "prev" : "https://api.nasa.gov/neo/rest/v1/feed?start_date=2014-11-07&end_date=2014-11-07&detailed=true&api_key=t0TVs3DtDT2H8Oy2Zy8m2eVrNsAVKAexjcZXUckd",
    "self" : "https://api.nasa.gov/neo/rest/v1/feed?start_date=2014-11-08&end_date=2014-11-08&detailed=true&api_key=t0TVs3DtDT2H8Oy2Zy8m2eVrNsAVKAexjcZXUckd"
  },
  "element_count" : 11,
  "near_earth_objects" : {
    "2014-11-08" : [ {
      "links" : {
        "self" : "https://api.nasa.gov/neo/rest/v1/neo/3694048?api_key=t0TVs3DtDT2H8Oy2Zy8m2eVrNsAVKAexjcZXUckd"
      },
      "neo_reference_id" : "3694048",
      "name" : "(2014 UT33)",
      "nasa_jpl_url" : "http://ssd.jpl.nasa.gov/sbdb.cgi?sstr=3694048",
      "absolute_magnitude_h" : 23.4,
      "estimated_diameter" : {
        "kilometers" : {
          "estimated_diameter_min" : 0.0555334912,
          "estimated_diameter_max" : 0.1241766613
        },
        "meters" : {
          "estimated_diameter_min" : 55.5334911581,
          "estimated_diameter_max" : 124.1766612574
        },
        "miles" : {
          "estimated_diameter_min" : 0.0345069009,
          "estimated_diameter_max" : 0.0771597762
        },
        "feet" : {
          "estimated_diameter_min" : 182.1964991311,
          "estimated_diameter_max" : 407.4037573197
        }
      },
      "is_potentially_hazardous_asteroid" : false,
      "close_approach_data" : [ {
        "close_approach_date" : "2014-11-08",
        "epoch_date_close_approach" : 1415433600000,
        "relative_velocity" : {
          "kilometers_per_second" : "11.6067601012",
          "kilometers_per_hour" : "41784.3363641526",
          "miles_per_hour" : "25963.1616702703"
        },
        "miss_distance" : {
          "astronomical" : "0.0398641011",
          "lunar" : "15.5071353912",
          "kilometers" : "5963584.5",
          "miles" : "3705599.75"
        },
        "orbiting_body" : "Earth"
      } ],
      "orbital_data" : {
        "orbit_id" : "12",
        "orbit_determination_date" : "2017-04-06 08:38:02",
        "orbit_uncertainty" : "8",
        "minimum_orbit_intersection" : ".0292614",
        "jupiter_tisserand_invariant" : "4.502",
        "epoch_osculation" : "2456957.5",
        "eccentricity" : ".4237128910646078",
        "semi_major_axis" : "1.466133096381295",
        "inclination" : "7.568689685963998",
        "ascending_node_longitude" : "35.99228339417001",
        "orbital_period" : "648.4231673534127",
        "perihelion_distance" : ".8449136034280714",
        "perihelion_argument" : "73.5405690177852",
        "aphelion_distance" : "2.087352589334519",
        "perihelion_time" : "2457016.264154432691",
        "mean_anomaly" : "327.3745531299955",
        "mean_motion" : ".5551929945214121",
        "equinox" : "J2000"
      }
    }, {
      "links" : {
        "self" : "https://api.nasa.gov/neo/rest/v1/neo/3702316?api_key=t0TVs3DtDT2H8Oy2Zy8m2eVrNsAVKAexjcZXUckd"
      },
      "neo_reference_id" : "3702316",
      "name" : "(2014 XF8)",
      "nasa_jpl_url" : "http://ssd.jpl.nasa.gov/sbdb.cgi?sstr=3702316",
      "absolute_magnitude_h" : 20.0,
      "estimated_diameter" : {
        "kilometers" : {
          "estimated_diameter_min" : 0.2658,
          "estimated_diameter_max" : 0.5943468684
        },
        "meters" : {
          "estimated_diameter_min" : 265.8,
          "estimated_diameter_max" : 594.3468684194
        },
        "miles" : {
          "estimated_diameter_min" : 0.1651604118,
          "estimated_diameter_max" : 0.369309908
        },
        "feet" : {
          "estimated_diameter_min" : 872.047272,
          "estimated_diameter_max" : 1949.9569797852
        }
      },
      "is_potentially_hazardous_asteroid" : false,
      "close_approach_data" : [ {
        "close_approach_date" : "2014-11-08",
        "epoch_date_close_approach" : 1415433600000,
        "relative_velocity" : {
          "kilometers_per_second" : "11.5801284285",
          "kilometers_per_hour" : "41688.4623424466",
          "miles_per_hour" : "25903.5892816164"
        },
        "miss_distance" : {
          "astronomical" : "0.4268547344",
          "lunar" : "166.0464935303",
          "kilometers" : "63856560",
          "miles" : "39678628"
        },
        "orbiting_body" : "Earth"
      } ],
      "orbital_data" : {
        "orbit_id" : "11",
        "orbit_determination_date" : "2017-04-06 08:36:53",
        "orbit_uncertainty" : "6",
        "minimum_orbit_intersection" : ".421905",
        "jupiter_tisserand_invariant" : "3.296",
        "epoch_osculation" : "2458000.5",
        "eccentricity" : ".4755724981543062",
        "semi_major_axis" : "2.365452280688952",
        "inclination" : "22.44524487915039",
        "ascending_node_longitude" : "82.04784699664356",
        "orbital_period" : "1328.830885683222",
        "perihelion_distance" : "1.240508230296906",
        "perihelion_argument" : "287.6827328807885",
        "aphelion_distance" : "3.490396331080998",
        "perihelion_time" : "2458261.459597488122",
        "mean_anomaly" : "289.3021737318956",
        "mean_motion" : ".2709148348963193",
        "equinox" : "J2000"
      }
    }, {
      "links" : {
        "self" : "https://api.nasa.gov/neo/rest/v1/neo/3713934?api_key=t0TVs3DtDT2H8Oy2Zy8m2eVrNsAVKAexjcZXUckd"
      },
      "neo_reference_id" : "3713934",
      "name" : "(2015 FR33)",
      "nasa_jpl_url" : "http://ssd.jpl.nasa.gov/sbdb.cgi?sstr=3713934",
      "absolute_magnitude_h" : 23.6,
      "estimated_diameter" : {
        "kilometers" : {
          "estimated_diameter_min" : 0.0506471459,
          "estimated_diameter_max" : 0.1132504611
        },
        "meters" : {
          "estimated_diameter_min" : 50.6471458835,
          "estimated_diameter_max" : 113.2504610618
        },
        "miles" : {
          "estimated_diameter_min" : 0.0314706677,
          "estimated_diameter_max" : 0.0703705522
        },
        "feet" : {
          "estimated_diameter_min" : 166.1651821003,
          "estimated_diameter_max" : 371.5566426699
        }
      },
      "is_potentially_hazardous_asteroid" : false,
      "close_approach_data" : [ {
        "close_approach_date" : "2014-11-08",
        "epoch_date_close_approach" : 1415433600000,
        "relative_velocity" : {
          "kilometers_per_second" : "13.4769882003",
          "kilometers_per_hour" : "48517.1575210591",
          "miles_per_hour" : "30146.6749052381"
        },
        "miss_distance" : {
          "astronomical" : "0.4322789704",
          "lunar" : "168.1565093994",
          "kilometers" : "64668012",
          "miles" : "40182840"
        },
        "orbiting_body" : "Earth"
      } ],
      "orbital_data" : {
        "orbit_id" : "6",
        "orbit_determination_date" : "2017-04-06 08:35:02",
        "orbit_uncertainty" : "8",
        "minimum_orbit_intersection" : ".18158",
        "jupiter_tisserand_invariant" : "4.812",
        "epoch_osculation" : "2457099.5",
        "eccentricity" : ".2003424929255003",
        "semi_major_axis" : "1.33569480874851",
        "inclination" : "22.63812845923396",
        "ascending_node_longitude" : "7.173405082020763",
        "orbital_period" : "563.8444162449889",
        "perihelion_distance" : "1.068098380976184",
        "perihelion_argument" : "110.992012257949",
        "aphelion_distance" : "1.603291236520835",
        "perihelion_time" : "2457032.938743063393",
        "mean_anomaly" : "42.49763198287499",
        "mean_motion" : ".6384740003234881",
        "equinox" : "J2000"
      }
    } ]
  }
}